{"fetched_at":"2026-07-06T18:35:52.738Z","source":"https://celestrak.org/NORAD/elements/gp.php?NAME=SENTINEL&FORMAT=JSON","constellation":"sentinel-3","records":[{"OBJECT_NAME":"SENTINEL-3A","OBJECT_ID":"2016-011A","EPOCH":"2026-07-06T07:00:19.801440","CLASSIFICATION_TYPE":"U","MEAN_MOTION":14.26738105,"ECCENTRICITY":0.0001412,"INCLINATION":98.6241,"RA_OF_ASC_NODE":254.4004,"ARG_OF_PERICENTER":93.188,"MEAN_ANOMALY":266.9462,"EPHEMERIS_TYPE":0,"NORAD_CAT_ID":41335,"ELEMENT_SET_NO":999,"REV_AT_EPOCH":54078,"BSTAR":0.000061512371,"MEAN_MOTION_DOT":0.00000105,"MEAN_MOTION_DDOT":0},{"OBJECT_NAME":"SENTINEL-3B","OBJECT_ID":"2018-039A","EPOCH":"2026-07-06T04:40:39.144000","CLASSIFICATION_TYPE":"U","MEAN_MOTION":14.26740326,"ECCENTRICITY":0.00009461,"INCLINATION":98.624,"RA_OF_ASC_NODE":254.4537,"ARG_OF_PERICENTER":117.9114,"MEAN_ANOMALY":242.2162,"EPHEMERIS_TYPE":0,"NORAD_CAT_ID":43437,"ELEMENT_SET_NO":999,"REV_AT_EPOCH":42683,"BSTAR":0.000064968842,"MEAN_MOTION_DOT":0.00000114,"MEAN_MOTION_DDOT":0}]}
